[{"OBJECT_NAME":"TIANMU-1 20","OBJECT_ID":"2023-208B","EPOCH":"2026-03-09T21:50:45.859200","MEAN_MOTION":15.31029249,"ECCENTRICITY":0.00061925,"INCLINATION":97.4323,"RA_OF_ASC_NODE":185.4313,"ARG_OF_PERICENTER":324.1763,"MEAN_ANOMALY":35.9062,"EPHEMERIS_TYPE":0,"CLASSIFICATION_TYPE":"U","NORAD_CAT_ID":58661,"ELEMENT_SET_NO":999,"REV_AT_EPOCH":12222,"BSTAR":0.0003681641,"MEAN_MOTION_DOT":0.00010969,"MEAN_MOTION_DDOT":0},{"OBJECT_NAME":"STARLINK-31631","OBJECT_ID":"2024-068E","EPOCH":"2026-03-09T22:26:47.756544","MEAN_MOTION":15.2756964,"ECCENTRICITY":9.029e-5,"INCLINATION":43.004,"RA_OF_ASC_NODE":29.382,"ARG_OF_PERICENTER":243.1247,"MEAN_ANOMALY":116.9513,"EPHEMERIS_TYPE":0,"CLASSIFICATION_TYPE":"U","NORAD_CAT_ID":59459,"ELEMENT_SET_NO":999,"REV_AT_EPOCH":10860,"BSTAR":-1.9196613e-5,"MEAN_MOTION_DOT":-7.9e-6,"MEAN_MOTION_DDOT":0}]
